inputName,address,city,state,zipCode,cardType,creditCardNumber,creditCardMonth,creditCardYear,nameOnCard,rememberMe
Name1,Address1,City1,State1,12000,visa,123456789123234,1,2001,Name1,on
Name2,Address2,City2,State2,12005,american+express,123456789123240,2,2002,Name2,on
Name3,Address3,City3,State3,12010,diner's+club,123456789123247,3,2003,Name3,off
Name4,Address4,City4,State4,12015,visa,123456789123254,4,2004,Name4,on
Name5,Address5,City5,State5,12020,american+express,123456789123260,5,2005,Name5,off
Name6,Address6,City6,State6,12025,diner's+club,123456789123267,6,2006,Name6,on
Name7,Address7,City7,State7,12030,visa,123456789123273,7,2007,Name7,on
Name8,Address8,City8,State8,12035,american+express,123456789123280,8,2008,Name8,off
Name9,Address9,City9,State9,12040,diner's+club,123456789123286,9,2009,Name9,on
Name10,Address10,City10,State10,12045,visa,123456789123293,10,2010,Name10,off
Name11,Address11,City11,State11,12050,american+express,123456789123299,11,2011,Name11,on
Name12,Address12,City12,State12,12055,diner's+club,123456789123306,12,2012,Name12,on
Name13,Address13,City13,State13,12060,visa,123456789123312,1,2013,Name13,off
Name14,Address14,City14,State14,12065,american+express,123456789123319,2,2014,Name14,on
Name15,Address15,City15,State15,12070,diner's+club,123456789123325,3,2015,Name15,off
Name16,Address16,City16,State16,12075,visa,123456789123332,4,2016,Name16,on
Name17,Address17,City17,State17,12080,american+express,123456789123339,5,2017,Name17,on
Name18,Address18,City18,State18,12085,diner's+club,123456789123345,6,2018,Name18,off
Name19,Address19,City19,State19,12090,visa,123456789123352,7,2019,Name19,on
Name20,Address20,City20,State20,12095,american+express,123456789123358,8,2020,Name20,on
Name21,Address21,City21,State21,12100,visa,123456789123365,9,2021,Name21,off
Name22,Address22,City22,State22,12105,american+express,123456789123371,10,2001,Name22,on
Name23,Address23,City23,State23,12110,diner's+club,123456789123378,11,2002,Name23,off
Name24,Address24,City24,State24,12115,visa,123456789123384,12,2003,Name24,on
Name25,Address25,City25,State25,12120,american+express,123456789123391,1,2004,Name25,on
Name26,Address26,City26,State26,12125,diner's+club,123456789123397,2,2005,Name26,off
Name27,Address27,City27,State27,12130,visa,123456789123404,3,2006,Name27,on
Name28,Address28,City28,State28,12135,american+express,123456789123410,4,2007,Name28,off
Name29,Address29,City29,State29,12140,diner's+club,123456789123417,5,2008,Name29,on
Name30,Address30,City30,State30,12145,visa,123456789123423,6,2009,Name30,on
Name31,Address31,City31,State31,12150,american+express,123456789123430,7,2010,Name31,off
Name32,Address32,City32,State32,12155,diner's+club,123456789123437,8,2011,Name32,on
Name33,Address33,City33,State33,12160,visa,123456789123443,9,2012,Name33,off
Name34,Address34,City34,State34,12165,american+express,123456789123450,10,2013,Name34,on
Name35,Address35,City35,State35,12170,diner's+club,123456789123456,11,2014,Name35,on
Name36,Address36,City36,State36,12175,visa,123456789123463,12,2015,Name36,off
Name37,Address37,City37,State37,12180,american+express,123456789123469,1,2016,Name37,on
Name38,Address38,City38,State38,12185,diner's+club,123456789123476,2,2017,Name38,on
Name39,Address39,City39,State39,12190,visa,123456789123482,3,2018,Name39,off
Name40,Address40,City40,State40,12195,american+express,123456789123489,4,2019,Name40,on
Name41,Address41,City41,State41,12200,diner's+club,123456789123495,5,2020,Name41,off
Name42,Address42,City42,State42,12205,visa,123456789123502,6,2021,Name42,on
Name43,Address43,City43,State43,12210,american+express,123456789123508,7,2001,Name43,on
Name44,Address44,City44,State44,12215,diner's+club,123456789123515,8,2002,Name44,off
Name45,Address45,City45,State45,12220,visa,123456789123521,9,2003,Name45,on
Name46,Address46,City46,State46,12225,american+express,123456789123528,10,2004,Name46,off
Name47,Address47,City47,State47,12230,diner's+club,123456789123534,11,2005,Name47,on
Name48,Address48,City48,State48,12235,visa,123456789123541,12,2006,Name48,on
Name49,Address49,City49,State49,12240,american+express,123456789123548,1,2007,Name49,off
Name50,Address50,City50,State50,12245,diner's+club,123456789123554,2,2008,Name50,on
Name51,Address51,City51,State51,12250,visa,123456789123561,3,2009,Name51,off
Name52,Address52,City52,State52,12255,american+express,123456789123567,4,2010,Name52,on
Name53,Address53,City53,State53,12260,visa,123456789123574,5,2011,Name53,on
Name54,Address54,City54,State54,12265,american+express,123456789123580,6,2012,Name54,off
Name55,Address55,City55,State55,12270,diner's+club,123456789123587,7,2013,Name55,on
Name56,Address56,City56,State56,12275,visa,123456789123593,8,2014,Name56,on
Name57,Address57,City57,State57,12280,american+express,123456789123600,9,2015,Name57,off
Name58,Address58,City58,State58,12285,diner's+club,123456789123606,10,2016,Name58,on
Name59,Address59,City59,State59,12290,visa,123456789123613,11,2017,Name59,off
Name60,Address60,City60,State60,12295,american+express,123456789123619,12,2018,Name60,on
Name61,Address61,City61,State61,12300,diner's+club,123456789123626,1,2019,Name61,on
Name62,Address62,City62,State62,12305,visa,123456789123632,2,2020,Name62,off
Name63,Address63,City63,State63,12310,american+express,123456789123639,3,2021,Name63,on
Name64,Address64,City64,State64,12315,diner's+club,123456789123646,4,2001,Name64,off
Name65,Address65,City65,State65,12320,visa,123456789123652,5,2002,Name65,on
Name66,Address66,City66,State66,12325,american+express,123456789123659,6,2003,Name66,on
Name67,Address67,City67,State67,12330,diner's+club,123456789123665,7,2004,Name67,off
Name68,Address68,City68,State68,12335,visa,123456789123672,8,2005,Name68,on
Name69,Address69,City69,State69,12340,american+express,123456789123678,9,2006,Name69,off
Name70,Address70,City70,State70,12345,diner's+club,123456789123685,10,2007,Name70,on
Name71,Address71,City71,State71,12350,visa,123456789123691,11,2008,Name71,on
Name72,Address72,City72,State72,12355,american+express,123456789123698,12,2009,Name72,off
Name73,Address73,City73,State73,12360,diner's+club,123456789123704,1,2010,Name73,on
Name74,Address74,City74,State74,12365,visa,123456789123711,2,2011,Name74,on
Name75,Address75,City75,State75,12370,american+express,123456789123717,3,2012,Name75,off
Name76,Address76,City76,State76,12375,diner's+club,123456789123724,4,2013,Name76,on
Name77,Address77,City77,State77,12380,visa,123456789123730,5,2014,Name77,off
Name78,Address78,City78,State78,12385,american+express,123456789123737,6,2015,Name78,on
Name79,Address79,City79,State79,12390,diner's+club,123456789123744,7,2016,Name79,on
Name80,Address80,City80,State80,12395,visa,123456789123750,8,2017,Name80,off
Name81,Address81,City81,State81,12400,american+express,123456789123757,9,2018,Name81,on
Name82,Address82,City82,State82,12405,diner's+club,123456789123763,10,2019,Name82,off
Name83,Address83,City83,State83,12410,visa,123456789123770,11,2020,Name83,on
Name84,Address84,City84,State84,12415,american+express,123456789123776,12,2021,Name84,on
Name85,Address85,City85,State85,12420,visa,123456789123783,1,2001,Name85,off
Name86,Address86,City86,State86,12425,american+express,123456789123789,2,2002,Name86,on
Name87,Address87,City87,State87,12430,diner's+club,123456789123796,3,2003,Name87,off
Name88,Address88,City88,State88,12435,visa,123456789123802,4,2004,Name88,on
Name89,Address89,City89,State89,12440,american+express,123456789123809,5,2005,Name89,on
Name90,Address90,City90,State90,12445,diner's+club,123456789123815,6,2006,Name90,off
Name91,Address91,City91,State91,12450,visa,123456789123822,7,2007,Name91,on
Name92,Address92,City92,State92,12455,american+express,123456789123828,8,2008,Name92,on
Name93,Address93,City93,State93,12460,diner's+club,123456789123835,9,2009,Name93,off
Name94,Address94,City94,State94,12465,visa,123456789123842,10,2010,Name94,on
Name95,Address95,City95,State95,12470,american+express,123456789123848,11,2011,Name95,off
Name96,Address96,City96,State96,12475,diner's+club,123456789123855,12,2012,Name96,on
Name97,Address97,City97,State97,12480,visa,123456789123861,1,2013,Name97,on
Name98,Address98,City98,State98,12485,american+express,123456789123868,2,2014,Name98,off
Name99,Address99,City99,State99,12490,diner's+club,123456789123874,3,2015,Name99,on
Name100,Address100,City100,State100,12495,visa,123456789123881,4,2016,Name100,off